OBJECT_NAME,OBJECT_ID,EPOCH,MEAN_MOTION,ECCENTRICITY,INCLINATION,RA_OF_ASC_NODE,ARG_OF_PERICENTER,MEAN_ANOMALY,EPHEMERIS_TYPE,CLASSIFICATION_TYPE,NORAD_CAT_ID,ELEMENT_SET_NO,REV_AT_EPOCH,BSTAR,MEAN_MOTION_DOT,MEAN_MOTION_DDOT
TIANMU-1 21,2023-208C,2026-06-14T04:24:46.991808,15.35029721,.0006188,97.4504,284.7679,336.4608,23.6351,0,U,58662,999,13710,.27439E-3,.925E-4,0
TIANMU-1 22,2023-208D,2026-06-14T04:43:42.126240,15.31021181,.0003498,97.4500,281.4197,15.0404,345.0941,0,U,58663,999,13687,.25787E-3,.7652E-4,0
TIANMU-1 15,2024-004A,2026-06-14T05:10:04.916352,15.26996440,.0007006,97.4662,351.4054,12.9173,347.2244,0,U,58700,999,13532,.20679E-3,.5407E-4,0
TIANMU-1 16,2024-004B,2026-06-14T04:53:48.708672,15.26721408,.0006136,97.4608,350.6343,18.2120,341.9337,0,U,58701,999,13532,.21456E-3,.5566E-4,0
TIANMU-1 17,2024-004C,2026-06-14T04:32:51.740736,15.26720742,.0005808,97.4635,351.1037,24.3563,335.7949,0,U,58702,999,13531,.21668E-3,.5621E-4,0
TIANMU-1 18,2024-004D,2026-06-14T03:59:35.454048,15.26979083,.0004333,97.4653,351.3341,24.8850,335.2597,0,U,58703,999,13531,.21271E-3,.5559E-4,0
INSAT-3DS,2024-033A,2026-06-14T01:31:13.259424,1.00271698,.0000988,0.0434,126.8640,307.9443,292.4656,0,U,58990,999,4703,0,-.147E-5,0
METEOR-M2 4,2024-039A,2026-06-14T03:48:33.851232,14.22429295,.0007122,98.7009,124.4948,169.4461,190.6868,0,U,59051,999,11883,.20107E-4,.1E-7,0
GOES 19,2024-119A,2026-06-14T02:29:01.974048,1.00269897,.0000497,0.0099,94.5560,79.8207,50.0959,0,U,60133,999,693,0,-.239E-5,0
MTG-S1,2025-143A,2026-06-14T04:32:10.749120,1.00271737,.0000981,0.6060,338.2480,11.9645,336.8517,0,U,64723,999,338,0,-.23E-6,0
METOP-SGA1,2025-172A,2026-06-14T04:22:46.134624,14.21509311,.0000919,98.6644,224.9650,91.6519,268.4764,0,U,65159,999,4336,.39003E-4,.42E-6,0
FENGYUN 3H,2025-219A,2026-06-14T01:57:19.442592,14.19919935,.000159,98.6768,105.9110,78.0030,282.1325,0,U,65815,999,3694,.38439E-4,.38E-6,0
