TIANMU-1 21             
1 58662U 23208C   26165.18387722  .00009250  00000+0  27439-3 0  9993
2 58662  97.4504 284.7679 0006188 336.4608  23.6351 15.35029721137101
TIANMU-1 22             
1 58663U 23208D   26165.19701535  .00007652  00000+0  25787-3 0  9995
2 58663  97.4500 281.4197 0003498  15.0404 345.0941 15.31021181136879
TIANMU-1 15             
1 58700U 24004A   26165.21533468  .00005407  00000+0  20679-3 0  9994
2 58700  97.4662 351.4054 0007006  12.9173 347.2244 15.26996440135320
TIANMU-1 16             
1 58701U 24004B   26165.20403598  .00005566  00000+0  21456-3 0  9994
2 58701  97.4608 350.6343 0006136  18.2120 341.9337 15.26721408135321
TIANMU-1 17             
1 58702U 24004C   26165.18948774  .00005621  00000+0  21668-3 0  9999
2 58702  97.4635 351.1037 0005808  24.3563 335.7949 15.26720742135311
TIANMU-1 18             
1 58703U 24004D   26165.16638257  .00005559  00000+0  21271-3 0  9990
2 58703  97.4653 351.3341 0004333  24.8850 335.2597 15.26979083135316
INSAT-3DS               
1 58990U 24033A   26165.06334791 -.00000147  00000+0  00000+0 0  9997
2 58990   0.0434 126.8640 0000988 307.9443 292.4656  1.00271698 47038
METEOR-M2 4             
1 59051U 24039A   26165.15872513  .00000001  00000+0  20107-4 0  9994
2 59051  98.7009 124.4948 0007122 169.4461 190.6868 14.22429295118839
GOES 19                 
1 60133U 24119A   26165.10349507 -.00000239  00000+0  00000+0 0  9992
2 60133   0.0099  94.5560 0000497  79.8207  50.0959  1.00269897  6933
MTG-S1                  
1 64723U 25143A   26165.18901330 -.00000023  00000+0  00000+0 0  9996
2 64723   0.6060 338.2480 0000981  11.9645 336.8517  1.00271737  3383
METOP-SGA1              
1 65159U 25172A   26165.18247841  .00000042  00000+0  39003-4 0  9992
2 65159  98.6644 224.9650 0000919  91.6519 268.4764 14.21509311 43363
FENGYUN 3H              
1 65815U 25219A   26165.08147503  .00000038  00000+0  38439-4 0  9993
2 65815  98.6768 105.9110 0001590  78.0030 282.1325 14.19919935 36947
